#aV2021  9 30  0  0  0.00000000     288 DD+AD WGS84 FIT  NGA
## 2177 345600.00000000   300.00000000 59487 0.0000000000000
+   32     1  2  3  4  5  6  7  8  9 10 11 12 13 14 15 16 17
+         18 19 20 21 22 23 24 25 26 27 28 29 30 31 32  0  0
+          0  0  0  0  0  0  0  0  0  0  0  0  0  0  0  0  0
+          0  0  0  0  0  0  0  0  0  0  0  0  0  0  0  0  0
+          0  0  0  0  0  0  0  0  0  0  0  0  0  0  0  0  0
++         2  2  2  2  2  2  2  2  2  2  2  2  2  2  2  2  2
++         2  2  2  2  2  2  2  2  2  2  2  2  2  2  2  0  0
++         0  0  0  0  0  0  0  0  0  0  0  0  0  0  0  0  0
++         0  0  0  0  0  0  0  0  0  0  0  0  0  0  0  0  0
++         0  0  0  0  0  0  0  0  0  0  0  0  0  0  0  0  0
%c cc cc ccc ccc cccc cccc cccc cccc ccccc ccccc ccccc ccccc
%c cc cc ccc ccc cccc cccc cccc cccc ccccc ccccc ccccc ccccc
%f  0.0000000  0.000000000  0.00000000000  0.000000000000000
%f  0.0000000  0.000000000  0.00000000000  0.000000000000000
%i    0    0    0    0      0      0      0      0         0
%i    0    0    0    0      0      0      0      0         0
/*      NGA, ST. LOUIS,MO.                                  
/*   EPHEMERIS COMPUTED FROM 2 DAYS OF DATA                 
/*   EPOCHA v7 SMOOTHER                                     
/*   G2139 IERS2010 SATIGS SATAPC                           
*  2021  9 30  4 40  0.00000000
P  1  10716.505712 -20443.329072 -13106.075045    553.055924                    
V  1  13586.606066  -9151.076833  26248.664645     -0.109343                    
P  2 -21194.483059  13688.842434  -7767.394260   -635.019467                    
V  2   5710.689072  -9452.920369 -29673.322788     -0.019657                    
P  3   2910.537566 -14875.573028 -21921.654168   -307.362539                    
V  3  26069.166257   8894.899463  -2486.576509     -0.137826                    
P  4   1383.755505 -25380.524959  -7581.737457   -204.095466                    
V  4   4156.072091   9115.476046 -29810.745201      0.002493                    
P  5 -17111.930245   8340.970374  18419.355901    -56.074439                    
V  5 -22223.778742  -8332.030330 -16565.894331     -0.012641                    
P  6 -19283.436417    653.514818 -18216.477525     84.520340                    
V  6  16820.927594 -15984.432984 -18264.085887      0.077835                    
P  7  -4488.712963 -15908.921064  21066.263156    254.274766                    
V  7  20456.523371 -16144.278670  -8464.004665      0.066584                    
P  8   8061.742633 -18598.477855  16982.069124    -38.333956                    
V  8   6292.929161  20846.246438  20135.859701     -0.014493                    
P  9  -7766.885270 -25144.229229   3421.090280   -361.519573                    
V  9   2053.133279  -4965.539875 -31220.302829     -0.002834                    
P 10  23332.062682  11907.124152   5356.642503   -213.784696                    
V 10  -6944.083932    -73.485713  30819.278227     -0.079671                    
P 11 -23007.942585   9886.371234  -8845.678169     20.237150                    
V 11   7317.092029  -8890.652436 -29019.936612      0.012688                    
P 12  -4895.605452  14309.794581 -22088.065995   -104.631340                    
V 12 -25196.520045 -10779.575905  -1285.571202     -0.054632                    
P 13 -13069.772682  11402.136903  19925.132279    192.676262                    
V 13  -2598.248055 -25538.908152  12962.859374      0.054568                    
P 14 -22813.112029 -12748.609530   4900.875772     -9.187376                    
V 14   6842.150851   -389.073223  30777.607884     -0.078372                    
P 15  -6136.604717  19867.276993  15940.966545   -117.454815                    
V 15  -9134.121299 -19330.883007  20426.171399      0.027562                    
P 16  20921.055610  -2663.052533  16173.070161   -399.074609                    
V 16  18349.054433   9889.287155 -21327.701503     -0.063451                    
P 17 -12416.021720 -17655.831661 -15035.641829    512.144006                    
V 17   -837.050722 -19892.250998  23389.730871      0.056267                    
P 18   5388.357621  14659.563337  21458.803170    316.373461                    
V 18 -21330.342161  16984.862264  -6335.074238     -0.046913                    
P 19 -14637.135184  -8794.692556 -20656.538669     59.568084                    
V 19  -1440.112928 -25492.714808  11873.929643      0.049858                    
P 20 -24410.978968   2697.255894   9742.315863    518.881820                    
V 20 -11713.561515  -5561.558473 -27993.338066     -0.001949                    
P 21  16314.133148 -20111.480180  -3674.140655    145.274136                    
V 21   6357.224399  -1573.083334  31602.311871      0.018882                    
P 22  11040.653276 -12758.234730 -20298.012799   -500.928845                    
V 22  25330.672512   7171.792697   9395.227200      0.092304                    
P 23  15188.308748  15763.149532  15071.750573     51.102244                    
V 23 -18817.738951  -3981.652755  23015.990754     -0.047741                    
P 24 -12873.467549  21553.970834  -8275.326135    245.025475                    
V 24  -9849.520374   4736.856481  28979.756828      0.073092                    
P 25   6790.302423  16918.113586 -19671.705211    216.601256                    
V 25 -23361.770103  -6888.243472 -13911.958600      0.062232                    
P 26  25957.299576   3925.017240   4877.507511    139.733354                    
V 26   5091.921722   4785.435523 -30291.998510      0.041096                    
P 27  13082.067651  -8417.294233  21290.431786   -199.826083                    
V 27   5890.626026  26855.126317   7297.257742     -0.051475                    
P 28 -24350.611942 -10169.851575  -1245.451380    491.609167                    
V 28   -928.198555  -3385.205373  32061.213471     -0.071643                    
P 29   3532.113354  26276.018080    719.571521   -419.232822                    
V 29  -2035.186376   1208.672768 -32272.366865     -0.055667                    
P 30 -14812.719670  -7602.962302  20803.825399   -477.829385                    
V 30  19789.592603 -17346.416425   7540.253940     -0.036584                    
P 31  20944.859859  -2078.515327 -16572.442792   -142.430573                    
V 31 -14943.540905  14400.498868 -20352.580790     -0.020150                    
P 32  14995.849073  13679.503597 -17109.225143     -5.269858                    
V 32   2590.595220  21800.023523  19394.590514     -0.037507                    
EOF
